{"type": "FeatureCollection", "features": [ {"type": "Feature", "properties": {"norad_id": 44543, "name": "BEIDOU-3 M23 (C45)", "group": "beidou", "lat": -21.85669222006738, "lon": 172.64857553457722, "alt_km": 21519.968386290264, "timestamp": "2025-12-02T06:27:53.279162+00:00", "meta": {"OBJECT_NAME": "BEIDOU-3 M23 (C45)", "OBJECT_ID": "2019-061B", "EPOCH": "2025-11-30T16:39:35.372160", "MEAN_MOTION": 1.86229336, "ECCENTRICITY": 0.00060049, "INCLINATION": 54.3987, "RA_OF_ASC_NODE": 189.3914, "ARG_OF_PERICENTER": 20.8242, "MEAN_ANOMALY": 335.9718, "EPHEMERIS_TYPE": 0, "CLASSIFICATION_TYPE": "U", "NORAD_CAT_ID": 44543, "ELEMENT_SET_NO": 999, "REV_AT_EPOCH": 4209, "BSTAR": 0, "MEAN_MOTION_DOT": 1.15e-06, "MEAN_MOTION_DDOT": 0}, "tle": {"line1": "1 44543U 19061B   25334.69415940  .00000115  00000+0  00000+0 0  9997", "line2": "2 44543  54.3987 189.3914 0006004  20.8242 335.9718  1.86229336 42092"}}, "geometry": {"type": "Point", "coordinates": [172.64857553457722, -21.85669222006738]}}, {"type": "Feature", "properties": {"norad_id": 44709, "name": "BEIDOU-3 IGSO-3 (C40)", "group": "beidou", "lat": -0.1040628799105638, "lon": -77.0858069411408, "alt_km": 35977.84122350321, "timestamp": "2025-12-02T06:27:53.279174+00:00", "meta": {"OBJECT_NAME": "BEIDOU-3 IGSO-3 (C40)", "OBJECT_ID": "2019-073A", "EPOCH": "2025-11-20T07:11:22.740000", "MEAN_MOTION": 1.00250097, "ECCENTRICITY": 0.0044538, "INCLINATION": 55.163, "RA_OF_ASC_NODE": 283.159, "ARG_OF_PERICENTER": 191.5856, "MEAN_ANOMALY": 168.2409, "EPHEMERIS_TYPE": 0, "CLASSIFICATION_TYPE": "U", "NORAD_CAT_ID": 44709, "ELEMENT_SET_NO": 999, "REV_AT_EPOCH": 2236, "BSTAR": 0, "MEAN_MOTION_DOT": -2.06e-06, "MEAN_MOTION_DDOT": 0}, "tle": {"line1": "1 44709U 19073A   25324.29956875 -.00000206  00000+0  00000+0 0  9998", "line2": "2 44709  55.1630 283.1590 0044538 191.5856 168.2409  1.00250097 22360"}}, "geometry": {"type": "Point", "coordinates": [-77.0858069411408, -0.1040628799105638]}}, {"type": "Feature", "properties": {"norad_id": 44793, "name": "BEIDOU-3 M22 (C44)", "group": "beidou", "lat": 10.324729090720927, "lon": 119.15963880598234, "alt_km": 21539.585389753964, "timestamp": "2025-12-02T06:27:53.279187+00:00", "meta": {"OBJECT_NAME": "BEIDOU-3 M22 (C44)", "OBJECT_ID": "2019-078A", "EPOCH": "2025-11-30T22:42:34.267680", "MEAN_MOTION": 1.86231848, "ECCENTRICITY": 0.00056075, "INCLINATION": 54.1193, "RA_OF_ASC_NODE": 306.8002, "ARG_OF_PERICENTER": 22.5114, "MEAN_ANOMALY": 337.5067, "EPHEMERIS_TYPE": 0, "CLASSIFICATION_TYPE": "U", "NORAD_CAT_ID": 44793, "ELEMENT_SET_NO": 999, "REV_AT_EPOCH": 4095, "BSTAR": 0, "MEAN_MOTION_DOT": -5.6e-07, "MEAN_MOTION_DDOT": 0}, "tle": {"line1": "1 44793U 19078A   25334.94622995 -.00000056  00000+0  00000+0 0  9995", "line2": "2 44793  54.1193 306.8002 0005607  22.5114 337.5067  1.86231848 40954"}}, "geometry": {"type": "Point", "coordinates": [119.15963880598234, 10.324729090720927]}}, {"type": "Feature", "properties": {"norad_id": 44794, "name": "BEIDOU-3 M21 (C43)", "group": "beidou", "lat": 51.48002989092756, "lon": 12.198722059781836, "alt_km": 21517.751543332823, "timestamp": "2025-12-02T06:27:53.279199+00:00", "meta": {"OBJECT_NAME": "BEIDOU-3 M21 (C43)", "OBJECT_ID": "2019-078B", "EPOCH": "2025-12-01T02:00:26.030304", "MEAN_MOTION": 1.86227539, "ECCENTRICITY": 0.00038706, "INCLINATION": 54.0922, "RA_OF_ASC_NODE": 306.7607, "ARG_OF_PERICENTER": 10.0971, "MEAN_ANOMALY": 349.9036, "EPHEMERIS_TYPE": 0, "CLASSIFICATION_TYPE": "U", "NORAD_CAT_ID": 44794, "ELEMENT_SET_NO": 999, "REV_AT_EPOCH": 4096, "BSTAR": 0, "MEAN_MOTION_DOT": -5.7e-07, "MEAN_MOTION_DDOT": 0}, "tle": {"line1": "1 44794U 19078B   25335.08363461 -.00000057  00000+0  00000+0 0  9993", "line2": "2 44794  54.0922 306.7607 0003870  10.0971 349.9036  1.86227539 40963"}}, "geometry": {"type": "Point", "coordinates": [12.198722059781836, 51.48002989092756]}}, {"type": "Feature", "properties": {"norad_id": 44864, "name": "BEIDOU-3 M19 (C41)", "group": "beidou", "lat": -56.399937213823705, "lon": -19.606185788445195, "alt_km": 21486.79371404779, "timestamp": "2025-12-02T06:27:53.279211+00:00", "meta": {"OBJECT_NAME": "BEIDOU-3 M19 (C41)", "OBJECT_ID": "2019-090A", "EPOCH": "2025-12-01T09:01:40.910016", "MEAN_MOTION": 1.86231118, "ECCENTRICITY": 0.00174903, "INCLINATION": 56.3832, "RA_OF_ASC_NODE": 69.3391, "ARG_OF_PERICENTER": 284.7373, "MEAN_ANOMALY": 107.0465, "EPHEMERIS_TYPE": 0, "CLASSIFICATION_TYPE": "U", "NORAD_CAT_ID": 44864, "ELEMENT_SET_NO": 999, "REV_AT_EPOCH": 4055, "BSTAR": 0, "MEAN_MOTION_DOT": -4.1e-07, "MEAN_MOTION_DDOT": 0}, "tle": {"line1": "1 44864U 19090A   25335.37616794 -.00000041  00000+0  00000+0 0  9990", "line2": "2 44864  56.3832  69.3391 0017490 284.7373 107.0465  1.86231118 40559"}}, "geometry": {"type": "Point", "coordinates": [-19.606185788445195, -56.399937213823705]}}, {"type": "Feature", "properties": {"norad_id": 44865, "name": "BEIDOU-3 M20 (C42)", "group": "beidou", "lat": 0.3230099296218607, "lon": 69.55673248363505, "alt_km": 21509.634238529463, "timestamp": "2025-12-02T06:27:53.279222+00:00", "meta": {"OBJECT_NAME": "BEIDOU-3 M20 (C42)", "OBJECT_ID": "2019-090B", "EPOCH": "2025-12-01T04:44:21.164352", "MEAN_MOTION": 1.86231112, "ECCENTRICITY": 0.0014612, "INCLINATION": 56.3845, "RA_OF_ASC_NODE": 69.3793, "ARG_OF_PERICENTER": 297.5654, "MEAN_ANOMALY": 64.0235, "EPHEMERIS_TYPE": 0, "CLASSIFICATION_TYPE": "U", "NORAD_CAT_ID": 44865, "ELEMENT_SET_NO": 999, "REV_AT_EPOCH": 4053, "BSTAR": 0, "MEAN_MOTION_DOT": -3.9e-07, "MEAN_MOTION_DDOT": 0}, "tle": {"line1": "1 44865U 19090B   25335.19746718 -.00000039  00000+0  00000+0 0  9998", "line2": "2 44865  56.3845  69.3793 0014612 297.5654  64.0235  1.86231112 40536"}}, "geometry": {"type": "Point", "coordinates": [69.55673248363505, 0.3230099296218607]}}, {"type": "Feature", "properties": {"norad_id": 45344, "name": "BEIDOU-3 G2 (C60)", "group": "beidou", "lat": -1.270825056550167, "lon": -111.69062030780596, "alt_km": 35776.82443420974, "timestamp": "2025-12-02T06:27:53.279233+00:00", "meta": {"OBJECT_NAME": "BEIDOU-3 G2 (C60)", "OBJECT_ID": "2020-017A", "EPOCH": "2025-12-01T19:19:57.564768", "MEAN_MOTION": 1.00270537, "ECCENTRICITY": 0.0004488, "INCLINATION": 2.9791, "RA_OF_ASC_NODE": 43.5319, "ARG_OF_PERICENTER": 263.7784, "MEAN_ANOMALY": 133.6593, "EPHEMERIS_TYPE": 0, "CLASSIFICATION_TYPE": "U", "NORAD_CAT_ID": 45344, "ELEMENT_SET_NO": 999, "REV_AT_EPOCH": 2128, "BSTAR": 0, "MEAN_MOTION_DOT": -1.21e-06, "MEAN_MOTION_DDOT": 0}, "tle": {"line1": "1 45344U 20017A   25335.80552737 -.00000121  00000+0  00000+0 0  9998", "line2": "2 45344   2.9791  43.5319 0004488 263.7784 133.6593  1.00270537 21284"}}, "geometry": {"type": "Point", "coordinates": [-111.69062030780596, -1.270825056550167]}}, {"type": "Feature", "properties": {"norad_id": 45807, "name": "BEIDOU-3 G3 (C61)", "group": "beidou", "lat": -1.0630134022044644, "lon": -81.22141759424574, "alt_km": 35789.132146885604, "timestamp": "2025-12-02T06:27:53.279244+00:00", "meta": {"OBJECT_NAME": "BEIDOU-3 G3 (C61)", "OBJECT_ID": "2020-040A", "EPOCH": "2025-12-01T14:20:22.098336", "MEAN_MOTION": 1.00267664, "ECCENTRICITY": 0.0004952, "INCLINATION": 1.9619, "RA_OF_ASC_NODE": 66.5006, "ARG_OF_PERICENTER": 306.5523, "MEAN_ANOMALY": 23.2908, "EPHEMERIS_TYPE": 0, "CLASSIFICATION_TYPE": "U", "NORAD_CAT_ID": 45807, "ELEMENT_SET_NO": 999, "REV_AT_EPOCH": 2008, "BSTAR": 0, "MEAN_MOTION_DOT": -3.32e-06, "MEAN_MOTION_DDOT": 0}, "tle": {"line1": "1 45807U 20040A   25335.59747799 -.00000332  00000+0  00000+0 0  9992", "line2": "2 45807   1.9619  66.5006 0004952 306.5523  23.2908  1.00267664 20085"}}, "geometry": {"type": "Point", "coordinates": [-81.22141759424574, -1.0630134022044644]}}, {"type": "Feature", "properties": {"norad_id": 56564, "name": "BEIDOU-3 G4 (C62)", "group": "beidou", "lat": 0.39399650818435794, "lon": -31.597421674513214, "alt_km": 35799.08870429977, "timestamp": "2025-12-02T06:27:53.279257+00:00", "meta": {"OBJECT_NAME": "BEIDOU-3 G4 (C62)", "OBJECT_ID": "2023-066A", "EPOCH": "2025-12-01T18:00:01.061856", "MEAN_MOTION": 1.00271114, "ECCENTRICITY": 0.0003417, "INCLINATION": 0.8411, "RA_OF_ASC_NODE": 301.0868, "ARG_OF_PERICENTER": 233.4479, "MEAN_ANOMALY": 326.406, "EPHEMERIS_TYPE": 0, "CLASSIFICATION_TYPE": "U", "NORAD_CAT_ID": 56564, "ELEMENT_SET_NO": 999, "REV_AT_EPOCH": 941, "BSTAR": 0, "MEAN_MOTION_DOT": -9e-07, "MEAN_MOTION_DDOT": 0}, "tle": {"line1": "1 56564U 23066A   25335.75001229 -.00000090  00000+0  00000+0 0  9995", "line2": "2 56564   0.8411 301.0868 0003417 233.4479 326.4060  1.00271114  9417"}}, "geometry": {"type": "Point", "coordinates": [-31.597421674513214, 0.39399650818435794]}}, {"type": "Feature", "properties": {"norad_id": 58654, "name": "BEIDOU-3 M28 (C50)", "group": "beidou", "lat": 18.389627456120547, "lon": 82.1143236928317, "alt_km": 21528.604355538464, "timestamp": "2025-12-02T06:27:53.279301+00:00", "meta": {"OBJECT_NAME": "BEIDOU-3 M28 (C50)", "OBJECT_ID": "2023-207A", "EPOCH": "2025-12-01T03:53:10.155840", "MEAN_MOTION": 1.862296, "ECCENTRICITY": 0.00019433, "INCLINATION": 55.5745, "RA_OF_ASC_NODE": 68.9936, "ARG_OF_PERICENTER": 264.3364, "MEAN_ANOMALY": 95.6455, "EPHEMERIS_TYPE": 0, "CLASSIFICATION_TYPE": "U", "NORAD_CAT_ID": 58654, "ELEMENT_SET_NO": 999, "REV_AT_EPOCH": 1315, "BSTAR": 0, "MEAN_MOTION_DOT": -4e-07, "MEAN_MOTION_DDOT": 0}, "tle": {"line1": "1 58654U 23207A   25335.16192310 -.00000040  00000+0  00000+0 0  9996", "line2": "2 58654  55.5745  68.9936 0001943 264.3364  95.6455  1.86229600 13155"}}, "geometry": {"type": "Point", "coordinates": [82.1143236928317, 18.389627456120547]}}]}